ONEWEB-0449             
1 51642U 22012W   25323.27387212 -.00000640  00000+0 -18693-2 0  9992
2 51642  87.8804  78.1048 0001245 115.8891 244.2365 13.10371549181817
ONEWEB-0451             
1 51643U 22012X   25323.24531848  .00000083  00000+0  18079-3 0  9994
2 51643  87.9143  47.5764 0001698 105.4363 254.6956 13.17647958186016
ONEWEB-0452             
1 51644U 22012Y   25323.24363779  .00000078  00000+0  16821-3 0  9998
2 51644  87.9135  47.6338 0001671 113.1010 247.0298 13.17651694186020
ONEWEB-0456             
1 51646U 22012AA  25323.28383198 -.00000495  00000+0 -14554-2 0  9996
2 51646  87.8819  78.0709 0001757 101.8142 258.3183 13.10374133181852
ONEWEB-0457             
1 51647U 22012AB  25323.26059601 -.00000199  00000+0 -60525-3 0  9995
2 51647  87.8802  78.1253 0001163 100.5604 259.5654 13.10368981181850
ONEWEB-0458             
1 51648U 22012AC  25323.28217655 -.00000695  00000+0 -20285-2 0  9992
2 51648  87.8811  78.0931 0001533 108.7433 251.3860 13.10374800181816
ONEWEB-0461             
1 51649U 22012AD  25323.26557077  .00000039  00000+0  68154-4 0  9995
2 51649  87.9141  47.5868 0001691  97.9691 262.1632 13.17647200186247
ONEWEB-0463             
1 51650U 22012AE  25323.24699645  .00000040  00000+0  68932-4 0  9999
2 51650  87.9123  47.6388 0001673 104.0193 256.1125 13.17646988186022
ONEWEB-0464             
1 51651U 22012AF  25323.27884888 -.00000561  00000+0 -16439-2 0  9991
2 51651  87.8804  78.1314 0001872 102.6256 257.5081 13.10372699181839
ONEWEB-0468             
1 51652U 22012AG  25323.28548907 -.00000508  00000+0 -14907-2 0  9991
2 51652  87.8803  78.1223 0001748 107.0765 253.0554 13.10374139181819
ONEWEB-0473             
1 51653U 22012AH  25323.27055350 -.00000611  00000+0 -17875-2 0  9998
2 51653  87.8799  78.1290 0001582 106.4057 253.7245 13.10370676181817
ONEWEB-0474             
1 51654U 22012AJ  25323.26226123 -.00000323  00000+0 -96143-3 0  9992
2 51654  87.8807  78.0953 0001817 106.8168 253.3159 13.10369886181801
ONEWEB-0475             
1 51655U 22012AK  25323.25883322  .00000105  00000+0  23620-3 0  9998
2 51655  87.9128  47.6236 0002203 118.7896 241.3457 13.17653669186046
ONEWEB-0490             
1 54113U 22138A   25323.12205332 -.00000039  00000+0 -13063-3 0  9992
2 54113  87.9220 346.7536 0002025  95.2339 264.9025 13.19726249149127
ONEWEB-0492             
1 54114U 22138B   25323.29895325 -.00000007  00000+0 -50001-4 0  9997
2 54114  87.9212 346.7355 0002041  90.4009 269.7358 13.19728437149153
ONEWEB-0495             
1 54115U 22138C   25323.12522709 -.00000104  00000+0 -29151-3 0  9992
2 54115  87.9205 346.7751 0002531  99.1192 261.0227 13.19726491149113
