[{"OBJECT_NAME":"ONEWEB-0449","OBJECT_ID":"2022-012W","EPOCH":"2025-11-19T06:34:22.551168","MEAN_MOTION":13.10371549,"ECCENTRICITY":0.00012454,"INCLINATION":87.8804,"RA_OF_ASC_NODE":78.1048,"ARG_OF_PERICENTER":115.8891,"MEAN_ANOMALY":244.2365,"EPHEMERIS_TYPE":0,"CLASSIFICATION_TYPE":"U","NORAD_CAT_ID":51642,"ELEMENT_SET_NO":999,"REV_AT_EPOCH":18181,"BSTAR":-0.0018693322,"MEAN_MOTION_DOT":-6.4e-6,"MEAN_MOTION_DDOT":0},{"OBJECT_NAME":"ONEWEB-0451","OBJECT_ID":"2022-012X","EPOCH":"2025-11-19T05:53:15.516672","MEAN_MOTION":13.17647958,"ECCENTRICITY":0.00016982,"INCLINATION":87.9143,"RA_OF_ASC_NODE":47.5764,"ARG_OF_PERICENTER":105.4363,"MEAN_ANOMALY":254.6956,"EPHEMERIS_TYPE":0,"CLASSIFICATION_TYPE":"U","NORAD_CAT_ID":51643,"ELEMENT_SET_NO":999,"REV_AT_EPOCH":18601,"BSTAR":0.00018079492,"MEAN_MOTION_DOT":8.3e-7,"MEAN_MOTION_DDOT":0},{"OBJECT_NAME":"ONEWEB-0452","OBJECT_ID":"2022-012Y","EPOCH":"2025-11-19T05:50:50.305056","MEAN_MOTION":13.17651694,"ECCENTRICITY":0.00016716,"INCLINATION":87.9135,"RA_OF_ASC_NODE":47.6338,"ARG_OF_PERICENTER":113.101,"MEAN_ANOMALY":247.0298,"EPHEMERIS_TYPE":0,"CLASSIFICATION_TYPE":"U","NORAD_CAT_ID":51644,"ELEMENT_SET_NO":999,"REV_AT_EPOCH":18602,"BSTAR":0.00016821463,"MEAN_MOTION_DOT":7.8e-7,"MEAN_MOTION_DDOT":0},{"OBJECT_NAME":"ONEWEB-0456","OBJECT_ID":"2022-012AA","EPOCH":"2025-11-19T06:48:43.083072","MEAN_MOTION":13.10374133,"ECCENTRICITY":0.00017578,"INCLINATION":87.8819,"RA_OF_ASC_NODE":78.0709,"ARG_OF_PERICENTER":101.8142,"MEAN_ANOMALY":258.3183,"EPHEMERIS_TYPE":0,"CLASSIFICATION_TYPE":"U","NORAD_CAT_ID":51646,"ELEMENT_SET_NO":999,"REV_AT_EPOCH":18185,"BSTAR":-0.0014554285,"MEAN_MOTION_DOT":-4.95e-6,"MEAN_MOTION_DDOT":0},{"OBJECT_NAME":"ONEWEB-0457","OBJECT_ID":"2022-012AB","EPOCH":"2025-11-19T06:15:15.495264","MEAN_MOTION":13.10368981,"ECCENTRICITY":0.00011634,"INCLINATION":87.8802,"RA_OF_ASC_NODE":78.1253,"ARG_OF_PERICENTER":100.5604,"MEAN_ANOMALY":259.5654,"EPHEMERIS_TYPE":0,"CLASSIFICATION_TYPE":"U","NORAD_CAT_ID":51647,"ELEMENT_SET_NO":999,"REV_AT_EPOCH":18185,"BSTAR":-0.00060524891,"MEAN_MOTION_DOT":-1.99e-6,"MEAN_MOTION_DDOT":0},{"OBJECT_NAME":"ONEWEB-0458","OBJECT_ID":"2022-012AC","EPOCH":"2025-11-19T06:46:20.053920","MEAN_MOTION":13.103748,"ECCENTRICITY":0.00015339,"INCLINATION":87.8811,"RA_OF_ASC_NODE":78.0931,"ARG_OF_PERICENTER":108.7433,"MEAN_ANOMALY":251.386,"EPHEMERIS_TYPE":0,"CLASSIFICATION_TYPE":"U","NORAD_CAT_ID":51648,"ELEMENT_SET_NO":999,"REV_AT_EPOCH":18181,"BSTAR":-0.0020285483,"MEAN_MOTION_DOT":-6.95e-6,"MEAN_MOTION_DDOT":0},{"OBJECT_NAME":"ONEWEB-0461","OBJECT_ID":"2022-012AD","EPOCH":"2025-11-19T06:22:25.314528","MEAN_MOTION":13.176472,"ECCENTRICITY":0.00016917,"INCLINATION":87.9141,"RA_OF_ASC_NODE":47.5868,"ARG_OF_PERICENTER":97.9691,"MEAN_ANOMALY":262.1632,"EPHEMERIS_TYPE":0,"CLASSIFICATION_TYPE":"U","NORAD_CAT_ID":51649,"ELEMENT_SET_NO":999,"REV_AT_EPOCH":18624,"BSTAR":6.8153846e-5,"MEAN_MOTION_DOT":3.9e-7,"MEAN_MOTION_DDOT":0},{"OBJECT_NAME":"ONEWEB-0463","OBJECT_ID":"2022-012AE","EPOCH":"2025-11-19T05:55:40.493280","MEAN_MOTION":13.17646988,"ECCENTRICITY":0.00016739,"INCLINATION":87.9123,"RA_OF_ASC_NODE":47.6388,"ARG_OF_PERICENTER":104.0193,"MEAN_ANOMALY":256.1125,"EPHEMERIS_TYPE":0,"CLASSIFICATION_TYPE":"U","NORAD_CAT_ID":51650,"ELEMENT_SET_NO":999,"REV_AT_EPOCH":18602,"BSTAR":6.8932129e-5,"MEAN_MOTION_DOT":4.0e-7,"MEAN_MOTION_DDOT":0},{"OBJECT_NAME":"ONEWEB-0464","OBJECT_ID":"2022-012AF","EPOCH":"2025-11-19T06:41:32.543232","MEAN_MOTION":13.10372699,"ECCENTRICITY":0.00018721,"INCLINATION":87.8804,"RA_OF_ASC_NODE":78.1314,"ARG_OF_PERICENTER":102.6256,"MEAN_ANOMALY":257.5081,"EPHEMERIS_TYPE":0,"CLASSIFICATION_TYPE":"U","NORAD_CAT_ID":51651,"ELEMENT_SET_NO":999,"REV_AT_EPOCH":18183,"BSTAR":-0.0016439392,"MEAN_MOTION_DOT":-5.61e-6,"MEAN_MOTION_DDOT":0},{"OBJECT_NAME":"ONEWEB-0468","OBJECT_ID":"2022-012AG","EPOCH":"2025-11-19T06:51:06.255648","MEAN_MOTION":13.10374139,"ECCENTRICITY":0.00017482,"INCLINATION":87.8803,"RA_OF_ASC_NODE":78.1223,"ARG_OF_PERICENTER":107.0765,"MEAN_ANOMALY":253.0554,"EPHEMERIS_TYPE":0,"CLASSIFICATION_TYPE":"U","NORAD_CAT_ID":51652,"ELEMENT_SET_NO":999,"REV_AT_EPOCH":18181,"BSTAR":-0.0014907002,"MEAN_MOTION_DOT":-5.08e-6,"MEAN_MOTION_DDOT":0},{"OBJECT_NAME":"ONEWEB-0473","OBJECT_ID":"2022-012AH","EPOCH":"2025-11-19T06:29:35.822400","MEAN_MOTION":13.10370676,"ECCENTRICITY":0.00015823,"INCLINATION":87.8799,"RA_OF_ASC_NODE":78.129,"ARG_OF_PERICENTER":106.4057,"MEAN_ANOMALY":253.7245,"EPHEMERIS_TYPE":0,"CLASSIFICATION_TYPE":"U","NORAD_CAT_ID":51653,"ELEMENT_SET_NO":999,"REV_AT_EPOCH":18181,"BSTAR":-0.0017875364,"MEAN_MOTION_DOT":-6.11e-6,"MEAN_MOTION_DDOT":0},{"OBJECT_NAME":"ONEWEB-0474","OBJECT_ID":"2022-012AJ","EPOCH":"2025-11-19T06:17:39.370272","MEAN_MOTION":13.10369886,"ECCENTRICITY":0.00018177,"INCLINATION":87.8807,"RA_OF_ASC_NODE":78.0953,"ARG_OF_PERICENTER":106.8168,"MEAN_ANOMALY":253.3159,"EPHEMERIS_TYPE":0,"CLASSIFICATION_TYPE":"U","NORAD_CAT_ID":51654,"ELEMENT_SET_NO":999,"REV_AT_EPOCH":18180,"BSTAR":-0.00096142963,"MEAN_MOTION_DOT":-3.23e-6,"MEAN_MOTION_DDOT":0},{"OBJECT_NAME":"ONEWEB-0475","OBJECT_ID":"2022-012AK","EPOCH":"2025-11-19T06:12:43.190208","MEAN_MOTION":13.17653669,"ECCENTRICITY":0.00022032,"INCLINATION":87.9128,"RA_OF_ASC_NODE":47.6236,"ARG_OF_PERICENTER":118.7896,"MEAN_ANOMALY":241.3457,"EPHEMERIS_TYPE":0,"CLASSIFICATION_TYPE":"U","NORAD_CAT_ID":51655,"ELEMENT_SET_NO":999,"REV_AT_EPOCH":18604,"BSTAR":0.00023619596,"MEAN_MOTION_DOT":1.05e-6,"MEAN_MOTION_DDOT":0},{"OBJECT_NAME":"ONEWEB-0490","OBJECT_ID":"2022-138A","EPOCH":"2025-11-19T02:55:45.406848","MEAN_MOTION":13.19726249,"ECCENTRICITY":0.00020254,"INCLINATION":87.922,"RA_OF_ASC_NODE":346.7536,"ARG_OF_PERICENTER":95.2339,"MEAN_ANOMALY":264.9025,"EPHEMERIS_TYPE":0,"CLASSIFICATION_TYPE":"U","NORAD_CAT_ID":54113,"ELEMENT_SET_NO":999,"REV_AT_EPOCH":14912,"BSTAR":-0.00013063479,"MEAN_MOTION_DOT":-3.9e-7,"MEAN_MOTION_DDOT":0},{"OBJECT_NAME":"ONEWEB-0492","OBJECT_ID":"2022-138B","EPOCH":"2025-11-19T07:10:29.560800","MEAN_MOTION":13.19728437,"ECCENTRICITY":0.00020417,"INCLINATION":87.9212,"RA_OF_ASC_NODE":346.7355,"ARG_OF_PERICENTER":90.4009,"MEAN_ANOMALY":269.7358,"EPHEMERIS_TYPE":0,"CLASSIFICATION_TYPE":"U","NORAD_CAT_ID":54114,"ELEMENT_SET_NO":999,"REV_AT_EPOCH":14915,"BSTAR":-5.0001071e-5,"MEAN_MOTION_DOT":-7.0e-8,"MEAN_MOTION_DDOT":0},{"OBJECT_NAME":"ONEWEB-0495","OBJECT_ID":"2022-138C","EPOCH":"2025-11-19T03:00:19.620576","MEAN_MOTION":13.19726491,"ECCENTRICITY":0.0002531,"INCLINATION":87.9205,"RA_OF_ASC_NODE":346.7751,"ARG_OF_PERICENTER":99.1192,"MEAN_ANOMALY":261.0227,"EPHEMERIS_TYPE":0,"CLASSIFICATION_TYPE":"U","NORAD_CAT_ID":54115,"ELEMENT_SET_NO":999,"REV_AT_EPOCH":14911,"BSTAR":-0.00029150972,"MEAN_MOTION_DOT":-1.04e-6,"MEAN_MOTION_DDOT":0}]
